{"type": "FeatureCollection", "features": [ {"type": "Feature", "properties": {"norad_id": 66593, "name": "STARLINK-36031", "group": "last-30-days", "lat": -34.73568454632657, "lon": -160.0901337968058, "alt_km": 340.33502745600254, "timestamp": "2025-12-03T10:52:56.223173+00:00", "meta": {"OBJECT_NAME": "STARLINK-36031", "OBJECT_ID": "2025-270F", "EPOCH": "2025-12-03T04:00:01.998720", "MEAN_MOTION": 15.78188601, "ECCENTRICITY": 0.0001633, "INCLINATION": 42.9989, "RA_OF_ASC_NODE": 249.739, "ARG_OF_PERICENTER": 273.9391, "MEAN_ANOMALY": 198.8248, "EPHEMERIS_TYPE": 0, "CLASSIFICATION_TYPE": "U", "NORAD_CAT_ID": 66593, "ELEMENT_SET_NO": 999, "REV_AT_EPOCH": 286, "BSTAR": -0.010203, "MEAN_MOTION_DOT": -0.01576128, "MEAN_MOTION_DDOT": 0}, "tle": {"line1": "1 66593U 25270F   25337.16668980 -.01576128  00000+0 -10203-1 0  9997", "line2": "2 66593  42.9989 249.7390 0001633 273.9391 198.8248 15.78188601  2864"}}, "geometry": {"type": "Point", "coordinates": [-160.0901337968058, -34.73568454632657]}}, {"type": "Feature", "properties": {"norad_id": 66594, "name": "STARLINK-36032", "group": "last-30-days", "lat": -33.77656544036807, "lon": -157.88675381690464, "alt_km": 340.6412002783991, "timestamp": "2025-12-03T10:52:56.223183+00:00", "meta": {"OBJECT_NAME": "STARLINK-36032", "OBJECT_ID": "2025-270G", "EPOCH": "2025-12-03T04:00:01.998720", "MEAN_MOTION": 15.78135556, "ECCENTRICITY": 0.0001402, "INCLINATION": 42.9989, "RA_OF_ASC_NODE": 249.7336, "ARG_OF_PERICENTER": 272.006, "MEAN_ANOMALY": 202.8816, "EPHEMERIS_TYPE": 0, "CLASSIFICATION_TYPE": "U", "NORAD_CAT_ID": 66594, "ELEMENT_SET_NO": 999, "REV_AT_EPOCH": 260, "BSTAR": -0.010309, "MEAN_MOTION_DOT": -0.01586879, "MEAN_MOTION_DDOT": 0}, "tle": {"line1": "1 66594U 25270G   25337.16668980 -.01586879  00000+0 -10309-1 0  9999", "line2": "2 66594  42.9989 249.7336 0001402 272.0060 202.8816 15.78135556  2602"}}, "geometry": {"type": "Point", "coordinates": [-157.88675381690464, -33.77656544036807]}}, {"type": "Feature", "properties": {"norad_id": 66595, "name": "STARLINK-35711", "group": "last-30-days", "lat": -32.79002735977464, "lon": -155.7564674829853, "alt_km": 340.64365274896863, "timestamp": "2025-12-03T10:52:56.223195+00:00", "meta": {"OBJECT_NAME": "STARLINK-35711", "OBJECT_ID": "2025-270H", "EPOCH": "2025-12-03T04:00:01.998720", "MEAN_MOTION": 15.78087377, "ECCENTRICITY": 0.0001522, "INCLINATION": 42.999, "RA_OF_ASC_NODE": 249.728, "ARG_OF_PERICENTER": 275.1354, "MEAN_ANOMALY": 201.8461, "EPHEMERIS_TYPE": 0, "CLASSIFICATION_TYPE": "U", "NORAD_CAT_ID": 66595, "ELEMENT_SET_NO": 999, "REV_AT_EPOCH": 297, "BSTAR": -0.01037, "MEAN_MOTION_DOT": -0.01592017, "MEAN_MOTION_DDOT": 0}, "tle": {"line1": "1 66595U 25270H   25337.16668980 -.01592017  00000+0 -10370-1 0  9999", "line2": "2 66595  42.9990 249.7280 0001522 275.1354 201.8461 15.78087377  2978"}}, "geometry": {"type": "Point", "coordinates": [-155.7564674829853, -32.79002735977464]}}, {"type": "Feature", "properties": {"norad_id": 66596, "name": "STARLINK-35811", "group": "last-30-days", "lat": -31.784848528137342, "lon": -153.7072841756644, "alt_km": 340.6989836488892, "timestamp": "2025-12-03T10:52:56.223205+00:00", "meta": {"OBJECT_NAME": "STARLINK-35811", "OBJECT_ID": "2025-270J", "EPOCH": "2025-12-03T04:00:01.998720", "MEAN_MOTION": 15.78052851, "ECCENTRICITY": 0.000143, "INCLINATION": 42.999, "RA_OF_ASC_NODE": 249.7226, "ARG_OF_PERICENTER": 282.3354, "MEAN_ANOMALY": 196.6966, "EPHEMERIS_TYPE": 0, "CLASSIFICATION_TYPE": "U", "NORAD_CAT_ID": 66596, "ELEMENT_SET_NO": 999, "REV_AT_EPOCH": 297, "BSTAR": -0.010454, "MEAN_MOTION_DOT": -0.01600977, "MEAN_MOTION_DDOT": 0}, "tle": {"line1": "1 66596U 25270J   25337.16668980 -.01600977  00000+0 -10454-1 0  9998", "line2": "2 66596  42.9990 249.7226 0001430 282.3354 196.6966 15.78052851  2977"}}, "geometry": {"type": "Point", "coordinates": [-153.7072841756644, -31.784848528137342]}}, {"type": "Feature", "properties": {"norad_id": 66597, "name": "STARLINK-35820", "group": "last-30-days", "lat": -30.773310165196335, "lon": -151.75087365295096, "alt_km": 340.7800224885714, "timestamp": "2025-12-03T10:52:56.223215+00:00", "meta": {"OBJECT_NAME": "STARLINK-35820", "OBJECT_ID": "2025-270K", "EPOCH": "2025-12-03T04:00:01.998720", "MEAN_MOTION": 15.78061715, "ECCENTRICITY": 0.0001432, "INCLINATION": 42.9992, "RA_OF_ASC_NODE": 249.718, "ARG_OF_PERICENTER": 274.7168, "MEAN_ANOMALY": 206.2746, "EPHEMERIS_TYPE": 0, "CLASSIFICATION_TYPE": "U", "NORAD_CAT_ID": 66597, "ELEMENT_SET_NO": 999, "REV_AT_EPOCH": 297, "BSTAR": -0.010685, "MEAN_MOTION_DOT": -0.01665339, "MEAN_MOTION_DDOT": 0}, "tle": {"line1": "1 66597U 25270K   25337.16668980 -.01665339  00000+0 -10685-1 0  9998", "line2": "2 66597  42.9992 249.7180 0001432 274.7168 206.2746 15.78061715  2972"}}, "geometry": {"type": "Point", "coordinates": [-151.75087365295096, -30.773310165196335]}}, {"type": "Feature", "properties": {"norad_id": 66598, "name": "STARLINK-35981", "group": "last-30-days", "lat": -29.703086156345265, "lon": -149.78353196248008, "alt_km": 341.00504502324566, "timestamp": "2025-12-03T10:52:56.223225+00:00", "meta": {"OBJECT_NAME": "STARLINK-35981", "OBJECT_ID": "2025-270L", "EPOCH": "2025-12-03T04:00:01.998720", "MEAN_MOTION": 15.78012671, "ECCENTRICITY": 0.0001362, "INCLINATION": 42.999, "RA_OF_ASC_NODE": 249.7126, "ARG_OF_PERICENTER": 267.3521, "MEAN_ANOMALY": 215.6998, "EPHEMERIS_TYPE": 0, "CLASSIFICATION_TYPE": "U", "NORAD_CAT_ID": 66598, "ELEMENT_SET_NO": 999, "REV_AT_EPOCH": 270, "BSTAR": -0.010651, "MEAN_MOTION_DOT": -0.01657251, "MEAN_MOTION_DDOT": 0}, "tle": {"line1": "1 66598U 25270L   25337.16668980 -.01657251  00000+0 -10651-1 0  9996", "line2": "2 66598  42.9990 249.7126 0001362 267.3521 215.6998 15.78012671  2705"}}, "geometry": {"type": "Point", "coordinates": [-149.78353196248008, -29.703086156345265]}}, {"type": "Feature", "properties": {"norad_id": 66599, "name": "STARLINK-35930", "group": "last-30-days", "lat": -28.654489172306107, "lon": -147.9435881226139, "alt_km": 340.85734622185373, "timestamp": "2025-12-03T10:52:56.223239+00:00", "meta": {"OBJECT_NAME": "STARLINK-35930", "OBJECT_ID": "2025-270M", "EPOCH": "2025-12-03T04:00:01.998720", "MEAN_MOTION": 15.78017383, "ECCENTRICITY": 0.0001398, "INCLINATION": 42.999, "RA_OF_ASC_NODE": 249.7081, "ARG_OF_PERICENTER": 273.17, "MEAN_ANOMALY": 211.8043, "EPHEMERIS_TYPE": 0, "CLASSIFICATION_TYPE": "U", "NORAD_CAT_ID": 66599, "ELEMENT_SET_NO": 999, "REV_AT_EPOCH": 286, "BSTAR": -0.010704, "MEAN_MOTION_DOT": -0.01664887, "MEAN_MOTION_DDOT": 0}, "tle": {"line1": "1 66599U 25270M   25337.16668980 -.01664887  00000+0 -10704-1 0  9999", "line2": "2 66599  42.9990 249.7081 0001398 273.1700 211.8043 15.78017383  2860"}}, "geometry": {"type": "Point", "coordinates": [-147.9435881226139, -28.654489172306107]}}, {"type": "Feature", "properties": {"norad_id": 66600, "name": "STARLINK-35980", "group": "last-30-days", "lat": -27.538782107024417, "lon": -146.07094144075845, "alt_km": 340.91553256239604, "timestamp": "2025-12-03T10:52:56.223249+00:00", "meta": {"OBJECT_NAME": "STARLINK-35980", "OBJECT_ID": "2025-270N", "EPOCH": "2025-12-03T04:00:01.998720", "MEAN_MOTION": 15.77990349, "ECCENTRICITY": 0.0001474, "INCLINATION": 42.999, "RA_OF_ASC_NODE": 249.7029, "ARG_OF_PERICENTER": 270.6672, "MEAN_ANOMALY": 216.3385, "EPHEMERIS_TYPE": 0, "CLASSIFICATION_TYPE": "U", "NORAD_CAT_ID": 66600, "ELEMENT_SET_NO": 999, "REV_AT_EPOCH": 276, "BSTAR": -0.010836, "MEAN_MOTION_DOT": -0.01681267, "MEAN_MOTION_DDOT": 0}, "tle": {"line1": "1 66600U 25270N   25337.16668980 -.01681267  00000+0 -10836-1 0  9999", "line2": "2 66600  42.9990 249.7029 0001474 270.6672 216.3385 15.77990349  2769"}}, "geometry": {"type": "Point", "coordinates": [-146.07094144075845, -27.538782107024417]}}, {"type": "Feature", "properties": {"norad_id": 66601, "name": "STARLINK-35978", "group": "last-30-days", "lat": -26.43240748388435, "lon": -144.29027333057184, "alt_km": 340.64442593895365, "timestamp": "2025-12-03T10:52:56.223259+00:00", "meta": {"OBJECT_NAME": "STARLINK-35978", "OBJECT_ID": "2025-270P", "EPOCH": "2025-12-03T04:00:01.998720", "MEAN_MOTION": 15.77988142, "ECCENTRICITY": 0.0001567, "INCLINATION": 42.999, "RA_OF_ASC_NODE": 249.6978, "ARG_OF_PERICENTER": 283.8923, "MEAN_ANOMALY": 205.0626, "EPHEMERIS_TYPE": 0, "CLASSIFICATION_TYPE": "U", "NORAD_CAT_ID": 66601, "ELEMENT_SET_NO": 999, "REV_AT_EPOCH": 270, "BSTAR": -0.01092, "MEAN_MOTION_DOT": -0.01692816, "MEAN_MOTION_DDOT": 0}, "tle": {"line1": "1 66601U 25270P   25337.16668980 -.01692816  00000+0 -10920-1 0  9996", "line2": "2 66601  42.9990 249.6978 0001567 283.8923 205.0626 15.77988142  2705"}}, "geometry": {"type": "Point", "coordinates": [-144.29027333057184, -26.43240748388435]}}, {"type": "Feature", "properties": {"norad_id": 66602, "name": "STARLINK-36050", "group": "last-30-days", "lat": -25.252376270495247, "lon": -142.46488911802012, "alt_km": 341.0557058447648, "timestamp": "2025-12-03T10:52:56.223269+00:00", "meta": {"OBJECT_NAME": "STARLINK-36050", "OBJECT_ID": "2025-270Q", "EPOCH": "2025-12-03T04:00:01.998720", "MEAN_MOTION": 15.77944823, "ECCENTRICITY": 0.0001314, "INCLINATION": 42.9989, "RA_OF_ASC_NODE": 249.6927, "ARG_OF_PERICENTER": 271.2871, "MEAN_ANOMALY": 219.7435, "EPHEMERIS_TYPE": 0, "CLASSIFICATION_TYPE": "U", "NORAD_CAT_ID": 66602, "ELEMENT_SET_NO": 999, "REV_AT_EPOCH": 276, "BSTAR": -0.011038, "MEAN_MOTION_DOT": -0.01705829, "MEAN_MOTION_DDOT": 0}, "tle": {"line1": "1 66602U 25270Q   25337.16668980 -.01705829  00000+0 -11038-1 0  9997", "line2": "2 66602  42.9989 249.6927 0001314 271.2871 219.7435 15.77944823  2765"}}, "geometry": {"type": "Point", "coordinates": [-142.46488911802012, -25.252376270495247]}}]}